STARLINK-6255           
1 56550U 23065AZ  24058.90276958  .00000847  00000+0  77795-4 0  9999
2 56550  43.0026 288.3752 0001337 270.8710  89.1979 15.02538296 45049
STARLINK-6199           
1 56551U 23065BA  24059.02240739  .00004493  00000+0  34741-3 0  9996
2 56551  43.0025 287.5489 0001630 259.5392 100.5266 15.02544224 44283
STARLINK-5802           
1 56552U 23065BB  24059.02906723 -.00000158  00000+0  33675-5 0  9991
2 56552  43.0030 287.6024 0001348 273.9095  86.1593 15.02538084 44281
STARLINK-6074           
1 56553U 23065BC  24059.01907171  .00000545  00000+0  55373-4 0  9996
2 56553  43.0013 287.5251 0001336 266.8997  93.1693 15.02543688 44288
STARLINK-6295           
1 56554U 23065BD  24059.02352144  .00000275  00000+0  35459-4 0  9995
2 56554  43.0018 287.5610 0001324 275.5746  84.4945 15.02533505 44289
STARLINK-6252           
1 56555U 23065BE  24059.07889607  .00000385  00000+0  43559-4 0  9992
2 56555  43.0032 287.1151 0001256 270.7767  89.2932 15.02538539 44298
STARLINK-5302           
1 56556U 23065BF  24059.01574839 -.00000037  00000+0  12337-4 0  9990
2 56556  43.0023 287.5005 0001182 262.0673  98.0036 15.02539730 44285
STARLINK-6265           
1 56557U 23065BG  24058.94262001  .00011665  00000+0  87656-3 0  9990
2 56557  43.0012 287.8118 0001359 268.8043  91.2644 15.02560453 45055
STARLINK-6286           
1 56558U 23065BH  24059.00690926 -.00005658  00000+0 -40461-3 0  9990
2 56558  43.0032 287.4331 0001126 282.0922  77.9794 15.02491429 44284
BEIDOU-3 G4             
1 56564U 23066A   24058.73289218 -.00000106  00000+0  00000+0 0  9998
2 56564   2.4009 288.2016 0002726 199.9154  92.7717  1.00270966  2966
STARLINK-30122          
1 56688U 23067A   24059.12663745  .00005101  00000+0  39244-3 0  9996
2 56688  43.0034 338.9962 0001653 259.1474 100.9182 15.02535722 43400
STARLINK-30129          
1 56689U 23067B   24059.11665032  .00000528  00000+0  54116-4 0  9991
2 56689  43.0033 338.9323 0001205 279.8816  80.1890 15.02538398 43400
STARLINK-30124          
1 56690U 23067C   24058.84741260 -.00001957  00000+0 -12987-3 0  9998
2 56690  43.0025 340.3589 0001227 253.2765 106.7943 15.02530000 44213
STARLINK-30087          
1 56691U 23067D   24059.11305818  .00041860  00000+0  16938-2 0  9999
2 56691  42.9986 319.4259 0023055 210.2463 149.7057 15.23788420 43632
STARLINK-30036          
1 56692U 23067E   24059.17314403  .00010060  00000+0  75865-3 0  9999
2 56692  43.0039 338.5236 0001263 270.9545  89.1152 15.02537941 43418
STARLINK-30067          
1 56693U 23067F   24059.16646785  .00001243  00000+0  10707-3 0  9997
2 56693  43.0038 338.4720 0001475 261.9712  98.0963 15.02548895 43415
STARLINK-30126          
1 56694U 23067G   24059.16980762  .00004621  00000+0  35681-3 0  9995
2 56694  43.0030 338.4978 0001278 258.1925 101.8774 15.02546780 43412
STARLINK-30121          
1 56695U 23067H   24059.16314782  .00008206  00000+0  62163-3 0  9997
2 56695  43.0026 338.4249 0001173 261.2614  98.8096 15.02545751 43412
STARLINK-30130          
1 56697U 23067K   24058.80412195 -.00001975  00000+0 -13123-3 0  9996
2 56697  43.0030 340.0497 0000840 252.7850 107.2901 15.02529809 43955
STARLINK-30068          
1 56698U 23067L   24059.14343871  .00000816  00000+0  75496-4 0  9992
2 56698  43.0021 325.3076 0001249 269.9273  90.1426 15.02535190 43567
STARLINK-30127          
1 56699U 23067M   24059.15980665  .00006143  00000+0  46912-3 0  9991
2 56699  43.0025 338.4210 0001388 253.0707 106.9983 15.02561346 43417
STARLINK-30053          
1 56700U 23067N   24058.89057472 -.00001895  00000+0 -12525-3 0  9999
2 56700  43.0047 339.8410 0001365 204.7808 155.2969 15.02540375 44221
STARLINK-30125          
1 56701U 23067P   24058.82077539 -.00000528  00000+0 -24039-4 0  9995
2 56701  43.0042 340.1787 0001250 259.7278 100.3424 15.02536841 44212
STARLINK-30117          
1 56702U 23067Q   24059.12331560 -.00002034  00000+0 -13556-3 0  9992
2 56702  43.0037 338.9476 0001163 340.3616  19.7181 15.02525097 43407
STARLINK-30132          
1 56703U 23067R   24059.08335083  .00001050  00000+0  92796-4 0  9991
2 56703  43.0043 338.7125 0001244 281.2824  78.7879 15.02542447 43405
STARLINK-30066          
1 56704U 23067S   24059.12985045 -.00002652  00000+0 -18135-3 0  9991
2 56704  43.0043 338.1734 0001121 261.8716  98.1999 15.02533158 43413
STARLINK-30080          
1 56705U 23067T   24059.07363846  .00006631  00000+0  50549-3 0  9999
2 56705  43.0027 325.7082 0001415 257.7742 102.2942 15.02533878 43552
STARLINK-30079          
1 56706U 23067U   24059.14316236  .00000454  00000+0  48644-4 0  9990
2 56706  43.0053 338.2930 0001475 253.6623 106.4057 15.02546651 43413
STARLINK-30070          
1 56707U 23067V   24059.08001556 -.00007523  00000+0 -54221-3 0  9993
2 56707  43.0058 338.6859 0001254 265.5332  94.5367 15.02552950 43406
STARLINK-30071          
1 56708U 23067W   24058.80079925  .00000723  00000+0  68557-4 0  9999
2 56708  43.0057 340.0227 0001080 269.9801  90.0917 15.02534323 44214
STARLINK-30085          
1 56709U 23067X   24059.13983795  .00000544  00000+0  55369-4 0  9994
2 56709  43.0033 338.2674 0001276 246.2078 113.8631 15.02541577 43412
ONEWEB-0561             
1 56710U 23068A   24058.78116304  .00000052  00000+0  78480-4 0  9994
2 56710  88.2854  80.2146 0002551  76.2416 283.9010 13.34327999 38538
ONEWEB-0668             
1 56711U 23068B   24058.93025978  .00000052  00000+0  10323-3 0  9999
2 56711  87.9409  35.9569 0001351  98.5524 261.5760 13.16592571 41214
ONEWEB-0676             
1 56712U 23068C   24058.90491243  .00000044  00000+0  81244-4 0  9991
2 56712  87.9075  36.0106 0002401  85.4311 274.7094 13.16597648 41136
ONEWEB-0677             
1 56713U 23068D   24058.80342424  .00000019  00000+0  12753-4 0  9998
2 56713  88.3191  78.5395 0002561  99.0331 261.1100 13.34777431 38721
ONEWEB-0678             
1 56714U 23068E   24058.95468262 -.00000052  00000+0 -17233-3 0  9990
2 56714  87.8955  66.3844 0001795  84.0231 276.1104 13.15549146 38818
ONEWEB-0679             
1 56715U 23068F   24058.95559169  .00000012  00000+0 -10618-5 0  9995
2 56715  87.9074  36.0099 0001963 108.7933 251.3411 13.16585061 41163
ONEWEB-0680             
1 56716U 23068G   24058.92783701 -.00000083  00000+0 -23167-3 0  9994
2 56716  87.9221  51.2509 0001355 110.7353 249.3926 13.21823085 40093
ONEWEB-0681             
1 56717U 23068H   24058.95307110 -.00000046  00000+0 -14175-3 0  9992
2 56717  87.9220  51.2341 0003113  95.3974 264.7515 13.21825600 40087
ONEWEB-0682             
1 56718U 23068J   24059.05704264  .00007675  00000+0  20340-1 0  9998
2 56718  87.8947  66.4089 0001740 112.9452 247.1862 13.15535440 39699
ONEWEB-0683             
1 56719U 23068K   24059.07828804  .00000127  00000+0  30217-3 0  9999
2 56719  87.8949  66.3778 0001745 101.0499 259.0827 13.15546519 39660
ONEWEB-0684             
1 56720U 23068L   24059.01014797  .00000079  00000+0  17481-3 0  9997
2 56720  87.8950  66.4673 0001573  74.3335 285.7969 13.15546926 39484
ONEWEB-0686             
1 56721U 23068M   24058.94588414  .00009685  00000+0  25233-1 0  9995
2 56721  87.9074  36.0487 0001763  81.7755 278.3576 13.16702655 41151
ONEWEB-0694             
1 56722U 23068N   24059.19941422  .00005835  00000+0  15226-1 0  9990
2 56722  87.9135  35.9095 0002332  91.9929 268.1469 13.16563279 41944
ONEWEB-0696             
1 56723U 23068P   24058.73919162 -.00000082  00000+0 -25118-3 0  9990
2 56723  87.8951  66.4956 0002188  84.5713 275.5667 13.15549607 38860
ONEWEB-0703             
1 56724U 23068Q   24058.74869568 -.00000059  00000+0 -19012-3 0  9996
2 56724  87.8947  66.5151 0003011  73.6104 286.5358 13.15546758 38754
ONEWEB-0721             
1 56725U 23068R   24058.92296469  .00003299  00000+0  39077-3 0  9991
2 56725  86.6801  22.1379 0008731 314.0615  45.9889 14.84254725 42156
IRIDIUM 181             
1 56726U 23068S   24059.17105793  .00000590  00000+0  16832-3 0  9994
2 56726  86.8639  33.0105 0002843  95.7729 264.3797 14.43596500 41264
IRIDIUM 177             
1 56727U 23068T   24059.10215122  .00003916  00000+0  51173-3 0  9998
2 56727  86.2023   7.6122 0002795  91.6818 268.4723 14.80234422 42091
IRIDIUM 174             
1 56728U 23068U   24058.89386361  .00002284  00000+0  29709-3 0  9995
2 56728  86.2030   7.8057 0002450  92.0487 268.1015 14.80240340 42068
IRIDIUM 178             
1 56729U 23068V   24059.15885342  .00002240  00000+0  29126-3 0  9994
2 56729  86.5817  19.9180 0002438  89.8328 270.3173 14.80246706 42107
IRIDIUM 179             
1 56730U 23068W   24059.15342667  .00002238  00000+0  29102-3 0  9995
2 56730  86.6823  22.6662 0002456  92.6443 267.5060 14.80241274 42101
2023-069A               
1 56731U 23069A   24059.12882479  .00010572  00000+0  29204-3 0  9997
2 56731  41.0027 138.4958 0028655  14.4579 345.7057 15.36547064 43405
2023-069B               
1 56732U 23069B   24058.98121267  .00010084  00000+0  60852-3 0  9994
2 56732  41.0101 165.0012 0002193 353.4338   6.6446 15.10651042 43098
2023-069C               
1 56733U 23069C   24059.14756935  .00016335  00000+0  41602-3 0  9997
2 56733  41.0045 135.0931 0026459  28.6014 331.6255 15.38826688 43444
NEXTSAT-2               
1 56743U 23072A   24059.15688304  .00004446  00000+0  27371-3 0  9994
2 56743  97.5409 246.5031 0009513  69.1600 291.0648 15.10471651 42021
SNIPE 4                 
1 56744U 23072B   24059.11870548  .00008308  00000+0  49719-3 0  9995
2 56744  97.5504 246.9876 0013365  51.5328 308.7099 15.11210704 42039
SNIPE 2                 
1 56745U 23072C   24059.14236472  .00010321  00000+0  60516-3 0  9997
2 56745  97.5564 247.1793 0008481  64.8190 295.3919 15.11931515 42047
2023-072D               
1 56746U 23072D   24059.12439082  .00010295  00000+0  58755-3 0  9990
2 56746  97.5492 247.3215 0008869  69.8491 290.3693 15.12901944 42057
